NORAD_CAT_ID,OBJECT_NAME,OBJECT_TYPE,EPOCH,MEAN_MOTION,ECCENTRICITY,INCLINATION,RA_OF_ASC_NODE,ARG_OF_PERICENTER,MEAN_ANOMALY,BSTAR,MEAN_MOTION_DOT,MEAN_MOTION_DDOT,TLE_LINE0,TLE_LINE1,TLE_LINE2,SEMIMAJOR_AXIS,PERIOD,APOGEE,PERIGEE,DECAYED
52625.0,STARLINK-3988,PAYLOAD,2023-08-26 21:20:24,15.08837556,0.0001556,53.2165,105.2017,84.1596,275.9574,6.8771e-05,8.07e-06,0.0,0 STARLINK-3988,1 52625U 22052AD  23238.88916961  .00000807  00000-0  68771-4 0  9995,2 52625  53.2165 105.2017 0001556  84.1596 275.9574 15.08837556 71229,6917.888,95.438,540.829,538.676,0.0
52625.0,STARLINK-3988,PAYLOAD,2023-08-27 02:06:33,15.08845612,0.0001408,53.216,104.3085,80.3593,279.7558,0.00018375,2.638e-05,0.0,0 STARLINK-3988,1 52625U 22052AD  23239.08788575  .00002638  00000-0  18375-3 0  9994,2 52625  53.2160 104.3085 0001408  80.3593 279.7558 15.08845612 71631,6917.863,95.437,540.702,538.754,0.0
52625.0,STARLINK-3988,PAYLOAD,2023-08-27 18:00:24,15.08841001,0.0001494,53.217,101.3349,90.4104,269.706,8.5096e-05,1.067e-05,0.0,0 STARLINK-3988,1 52625U 22052AD  23239.75028913  .00001067  00000-0  85096-4 0  9991,2 52625  53.2170 101.3349 0001494  90.4104 269.7060 15.08841001 71733,6917.877,95.437,540.776,538.709,0.0
52625.0,STARLINK-3988,PAYLOAD,2023-08-27 21:11:11,15.08842532,0.0001537,53.2172,100.7407,89.1752,270.9416,0.00011637,1.565e-05,0.0,0 STARLINK-3988,1 52625U 22052AD  23239.88276864  .00001565  00000-0  11637-3 0  9997,2 52625  53.2172 100.7407 0001537  89.1752 270.9416 15.08842532 71374,6917.873,95.437,540.801,538.674,0.0
52625.0,STARLINK-3988,PAYLOAD,2023-08-28 21:01:58,15.0884337,0.0001442,53.2162,96.2793,87.5868,272.5289,0.00010101,1.32e-05,0.0,0 STARLINK-3988,1 52625U 22052AD  23240.87636888  .00001320  00000-0  10101-3 0  9998,2 52625  53.2162  96.2793 0001442  87.5868 272.5289 15.08843370 71529,6917.87,95.437,540.733,538.738,0.0
52625.0,STARLINK-3988,PAYLOAD,2023-08-29 00:12:44,15.0884566,0.0001469,53.217,95.6835,95.4517,264.6643,0.00014283,1.986e-05,0.0,0 STARLINK-3988,1 52625U 22052AD  23241.00884730  .00001986  00000-0  14283-3 0  9998,2 52625  53.2170  95.6835 0001469  95.4517 264.6643 15.08845660 71920,6917.863,95.437,540.744,538.712,0.0
52625.0,STARLINK-3988,PAYLOAD,2023-08-29 17:41:59,15.08837701,0.0001443,53.2167,92.4125,95.8624,264.2533,1.5962e-06,-2.63e-06,0.0,0 STARLINK-3988,1 52625U 22052AD  23241.73749200 -.00000263  00000-0  15962-5 0  9995,2 52625  53.2167  92.4125 0001443  95.8624 264.2533 15.08837701 72032,6917.887,95.438,540.751,538.754,0.0
52625.0,STARLINK-3988,PAYLOAD,2023-08-29 19:17:22,15.08839149,0.0001483,53.217,92.115,97.9712,262.1449,1.7705e-05,-6e-08,0.0,0 STARLINK-3988,1 52625U 22052AD  23241.80373124 -.00000006  00000-0  17705-4 0  9992,2 52625  53.2170  92.1150 0001483  97.9712 262.1449 15.08839149 71665,6917.883,95.438,540.774,538.722,0.0
52625.0,STARLINK-3988,PAYLOAD,2023-08-30 20:43:32,15.08849867,0.0002331,53.2167,87.3586,97.9557,262.17,0.00022808,3.344e-05,0.0,0 STARLINK-3988,1 52625U 22052AD  23242.86356586  .00003344  00000-0  22808-3 0  9998,2 52625  53.2167  87.3586 0002331  97.9557 262.1700 15.08849867 71826,6917.85,95.437,541.328,538.103,0.0
52625.0,STARLINK-3988,PAYLOAD,2023-08-30 22:18:55,15.08847359,0.0001531,53.2169,87.0623,96.0946,264.022,0.00013764,1.904e-05,0.0,0 STARLINK-3988,1 52625U 22052AD  23242.92980646  .00001904  00000-0  13764-3 0  9996,2 52625  53.2169  87.0623 0001531  96.0946 264.0220 15.08847359 72216,6917.858,95.437,540.782,538.664,0.0
52625.0,STARLINK-3988,PAYLOAD,2023-08-31 23:45:06,15.08835977,0.0001568,53.2171,82.3048,64.7577,295.3577,0.00015878,2.24e-05,0.0,0 STARLINK-3988,1 52625U 22052AD  23243.98965407  .00002240  00000-0  15878-3 0  9993,2 52625  53.2171  82.3048 0001568  64.7577 295.3577 15.08835977 72372,6917.893,95.438,540.842,538.673,0.0
52625.0,STARLINK-3988,PAYLOAD,2023-09-01 06:06:39,15.08808982,0.0002062,53.2171,81.1147,91.6563,268.4666,0.0010152,0.00015892,0.0,0 STARLINK-3988,1 52625U 22052AD  23244.25462957  .00015892  00000-0  10152-2 0  9992,2 52625  53.2171  81.1147 0002062  91.6563 268.4666 15.08808982 72414,6917.975,95.44,541.267,538.414,0.0
52625.0,STARLINK-3988,PAYLOAD,2023-09-01 23:35:53,15.08828177,0.000174,53.215,77.8433,92.2343,267.8849,0.00057119,8.811e-05,0.0,0 STARLINK-3988,1 52625U 22052AD  23244.98325753  .00008811  00000-0  57119-3 0  9992,2 52625  53.2150  77.8433 0001740  92.2343 267.8849 15.08828177 72522,6917.917,95.438,540.985,538.578,0.0
52625.0,STARLINK-3988,PAYLOAD,2023-09-02 12:18:58,15.08837206,0.0001426,53.2156,75.4645,86.625,273.4905,1.002e-05,-1.28e-06,0.0,0 STARLINK-3988,1 52625U 22052AD  23245.51317322 -.00000128  00000-0  10020-4 0  9990,2 52625  53.2156  75.4645 0001426  86.6250 273.4905 15.08837206 72228,6917.889,95.438,540.74,538.767,0.0
52625.0,STARLINK-3988,PAYLOAD,2023-09-02 17:05:08,15.087845,0.0001464,53.216,74.5701,94.9546,265.1613,0.00079209,0.00012322,0.0,0 STARLINK-3988,1 52625U 22052AD  23245.71190217  .00012322  00000-0  79209-3 0  9995,2 52625  53.2160  74.5701 0001464  94.9546 265.1613 15.08784500 72635,6918.05,95.441,540.928,538.902,0.0
52625.0,STARLINK-3988,PAYLOAD,2023-09-02 18:40:31,15.08827178,0.0001578,53.2176,74.2741,84.4261,275.6911,0.00023664,3.479e-05,0.0,0 STARLINK-3988,1 52625U 22052AD  23245.77813819  .00003479  00000-0  23664-3 0  9998,2 52625  53.2176  74.2741 0001578  84.4261 275.6911 15.08827178 72262,6917.92,95.438,540.876,538.693,0.0
52625.0,STARLINK-3988,PAYLOAD,2023-09-03 01:02:03,15.08827143,0.0001383,53.2175,73.0826,92.575,267.54,0.00043073,6.571e-05,0.0,0 STARLINK-3988,1 52625U 22052AD  23246.04309452  .00006571  00000-0  43073-3 0  9994,2 52625  53.2175  73.0826 0001383  92.5750 267.5400 15.08827143 72680,6917.92,95.438,540.741,538.828,0.0
52625.0,STARLINK-3988,PAYLOAD,2023-09-03 12:09:45,15.08841485,0.0001324,53.2172,70.9998,90.1392,269.9752,0.0001273,1.739e-05,0.0,0 STARLINK-3988,1 52625U 22052AD  23246.50677361  .00001739  00000-0  12730-3 0  9999,2 52625  53.2172  70.9998 0001324  90.1392 269.9752 15.08841485 72371,6917.876,95.437,540.657,538.825,0.0
52625.0,STARLINK-3988,PAYLOAD,2023-09-03 18:31:17,15.08848034,0.0001447,53.2154,69.8101,88.2318,271.884,0.00016227,2.296e-05,0.0,0 STARLINK-3988,1 52625U 22052AD  23246.77172867  .00002296  00000-0  16227-3 0  9993,2 52625  53.2154  69.8101 0001447  88.2318 271.8840 15.08848034 72799,6917.856,95.437,540.722,538.72,0.0
52625.0,STARLINK-3988,PAYLOAD,2023-09-04 05:38:59,15.08838237,0.0001623,53.217,67.7309,80.2803,279.8373,0.0001275,1.742e-05,0.0,0 STARLINK-3988,1 52625U 22052AD  23247.23541522  .00001742  00000-0  12750-3 0  9995,2 52625  53.2170  67.7309 0001623  80.2803 279.8373 15.08838237 72862,6917.886,95.438,540.874,538.628,0.0
52625.0,STARLINK-3988,PAYLOAD,2023-09-04 12:00:32,15.08835719,0.0001602,53.2162,66.5415,79.7353,280.382,6.6478e-05,7.7e-06,0.0,0 STARLINK-3988,1 52625U 22052AD  23247.50037717  .00000770  00000-0  66478-4 0  9998,2 52625  53.2162  66.5415 0001602  79.7353 280.3820 15.08835719 72527,6917.893,95.438,540.867,538.65,0.0
52625.0,STARLINK-3988,PAYLOAD,2023-09-04 23:08:14,15.08835063,0.0001539,53.2162,64.4592,79.5577,280.5589,1.5043e-05,-4.9e-07,0.0,0 STARLINK-3988,1 52625U 22052AD  23247.96405925 -.00000049  00000-0  15043-4 0  9990,2 52625  53.2162  64.4592 0001539  79.5577 280.5589 15.08835063 72970,6917.895,95.438,540.825,538.696,0.0
52625.0,STARLINK-3988,PAYLOAD,2023-09-05 18:12:51,15.08844424,0.0001428,53.2174,60.8912,81.4734,278.642,0.00013973,1.937e-05,0.0,0 STARLINK-3988,1 52625U 22052AD  23248.75893499  .00001937  00000-0  13973-3 0  9990,2 52625  53.2174  60.8912 0001428  81.4734 278.6420 15.08844424 73090,6917.867,95.437,540.72,538.744,0.0
52625.0,STARLINK-3988,PAYLOAD,2023-09-06 11:42:06,15.08839667,0.0001391,53.2177,57.6196,79.319,280.7959,0.00020617,2.995e-05,0.0,0 STARLINK-3988,1 52625U 22052AD  23249.48757847  .00002995  00000-0  20617-3 0  9995,2 52625  53.2177  57.6196 0001391  79.3190 280.7959 15.08839667 72826,6917.881,95.438,540.709,538.784,0.0
52625.0,STARLINK-3988,PAYLOAD,2023-09-07 11:32:53,15.08839697,0.000154,53.217,53.1596,80.5217,279.5949,3.5369e-05,2.75e-06,0.0,0 STARLINK-3988,1 52625U 22052AD  23250.48117747  .00000275  00000-0  35369-4 0  9996,2 52625  53.2170  53.1596 0001540  80.5217 279.5949 15.08839697 72978,6917.881,95.438,540.812,538.681,0.0
52625.0,STARLINK-3988,PAYLOAD,2023-09-07 21:05:12,15.08844386,0.0001681,53.2164,51.3734,96.6186,263.4998,4.9244e-05,4.96e-06,0.0,0 STARLINK-3988,1 52625U 22052AD  23250.87861422  .00000496  00000-0  49244-4 0  9997,2 52625  53.2164  51.3734 0001681  96.6186 263.4998 15.08844386 73039,6917.867,95.437,540.895,538.569,0.0
52625.0,STARLINK-3988,PAYLOAD,2023-09-08 03:26:45,15.08839668,0.0001724,53.2153,50.1844,93.1069,267.012,1.9497e-05,2.2e-07,0.0,0 STARLINK-3988,1 52625U 22052AD  23251.14357666  .00000022  00000-0  19497-4 0  9990,2 52625  53.2153  50.1844 0001724  93.1069 267.0120 15.08839668 73074,6917.881,95.438,540.939,538.554,0.0
52625.0,STARLINK-3988,PAYLOAD,2023-09-08 17:45:13,15.08841659,0.0001287,53.2166,47.5098,93.0992,267.0148,7.7907e-05,9.52e-06,0.0,0 STARLINK-3988,1 52625U 22052AD  23251.73973636  .00000952  00000-0  77907-4 0  9998,2 52625  53.2166  47.5098 0001287  93.0992 267.0148 15.08841659 73542,6917.875,95.437,540.631,538.85,0.0
52625.0,STARLINK-3988,PAYLOAD,2023-09-08 20:55:59,15.08848039,0.0001539,53.2189,46.9148,81.0494,279.0672,0.00013396,1.845e-05,0.0,0 STARLINK-3988,1 52625U 22052AD  23251.87221227  .00001845  00000-0  13396-3 0  9998,2 52625  53.2189  46.9148 0001539  81.0494 279.0672 15.08848039 73566,6917.856,95.437,540.785,538.656,0.0
52625.0,STARLINK-3988,PAYLOAD,2023-09-09 12:49:51,15.08838996,0.0001239,53.2192,43.9408,98.6965,261.4168,2.2273e-05,6.7e-07,0.0,0 STARLINK-3988,1 52625U 22052AD  23252.53462142  .00000067  00000-0  22273-4 0  9995,2 52625  53.2192  43.9408 0001239  98.6965 261.4168 15.08838996 73285,6917.883,95.438,540.606,538.891,0.0
